QIANFAN-97              
1 66039U 25233G   25353.48937660  .00000048  00000+0  38336-4 0  9998
2 66039  88.9953  61.4485 0018001  32.0656 328.1599 13.73265313  8906
QIANFAN-98              
1 66040U 25233H   25353.60815488  .00000062  00000+0  38265-4 0  9994
2 66040  88.9952  61.3499 0015675  26.0635 334.1325 13.91538652  8964
QIANFAN-99              
1 66041U 25233J   25353.64499441  .00000057  00000+0  49868-4 0  9991
2 66041  88.9953  61.4320 0010877  31.1458 329.0347 13.71124701  8926
QIANFAN-100             
1 66042U 25233K   25353.45039976  .00000056  00000+0  39749-4 0  9990
2 66042  88.9956  61.3813 0016333  30.5752 329.6366 13.82252936  8931
QIANFAN-101             
1 66043U 25233L   25353.75014468  .00000260  00000+0  10163-3 0  9998
2 66043  88.9955  61.2228 0015232  21.1259 339.0560 14.26680087  9040
QIANFAN-102             
1 66044U 25233M   25353.64217678  .00000053  00000+0  41628-4 0  9996
2 66044  88.9953  61.4100 0015569  27.9622 332.2377 13.76256613  8937
QIANFAN-103             
1 66045U 25233N   25353.29193247  .00000038  00000+0  27478-4 0  9993
2 66045  88.9951  61.4683 0015661  28.4194 331.7820 13.72393110  8875
QIANFAN-104             
1 66046U 25233P   25353.14529017  .00000048  00000+0  36195-4 0  9993
2 66046  88.9874  61.4609 0014052  47.9148 312.3209 13.75871345  8865
